[{"OBJECT_NAME":"STARLINK-36221","OBJECT_ID":"2025-304Z","EPOCH":"2026-03-09T16:54:19.604448","MEAN_MOTION":14.98316025,"ECCENTRICITY":0.00041576,"INCLINATION":70.0026,"RA_OF_ASC_NODE":174.5449,"ARG_OF_PERICENTER":274.6212,"MEAN_ANOMALY":85.4472,"EPHEMERIS_TYPE":0,"CLASSIFICATION_TYPE":"U","NORAD_CAT_ID":67215,"ELEMENT_SET_NO":999,"REV_AT_EPOCH":1388,"BSTAR":-0.00041268394,"MEAN_MOTION_DOT":-5.012e-5,"MEAN_MOTION_DDOT":0},{"OBJECT_NAME":"UNKNOWN","OBJECT_ID":"","EPOCH":"2026-03-03T02:04:07.928832","MEAN_MOTION":13.15432327,"ECCENTRICITY":0.0843493,"INCLINATION":65.7062,"RA_OF_ASC_NODE":230.7222,"ARG_OF_PERICENTER":79.7316,"MEAN_ANOMALY":289.7632,"EPHEMERIS_TYPE":0,"CLASSIFICATION_TYPE":"U","NORAD_CAT_ID":81921,"ELEMENT_SET_NO":999,"REV_AT_EPOCH":3635,"BSTAR":0.00080283,"MEAN_MOTION_DOT":1.918e-5,"MEAN_MOTION_DDOT":0}]
